0 COSMOS 1124 DEB
1 12814U 79077E   13271.52595478  .00000903  00000-0  00000+0 0  4261
2 12814 067.1120 037.9822 6017338 081.1881 338.6439 02.03893383158909
0 COSMOS 1124 DEB
1 12814U 79077E   13271.53849508  .00000902  00000-0  00000+0 0  4278
2 12814 067.1211 037.9689 6013308 081.0976 347.8741 02.03892355158904
0 COSMOS 1124 DEB
1 12814U 79077E   13273.98132725  .00000793  00000-0  00000+0 0  4284
2 12814 067.1200 037.7931 6015073 081.0587 340.9806 02.03896619158957
0 COSMOS 1124 DEB
1 12814U 79077E   13275.95180156  .00000546  00000-0  00000+0 0  4291
2 12814 067.1195 037.6515 6016024 081.0199 347.3924 02.03900365158993
0 COSMOS 1124 DEB
1 12814U 79077E   13280.35376534 -.00000233  00000-0  00000+0 0  4304
2 12814 067.1199 037.3549 6017871 080.8915 338.6949 02.03908288159077
